ONEWEB-0228             
1 48780U 21045P   24094.46633255  .00000004  00000+0 -23948-4 0  9996
2 48780  87.8996  59.3181 0001819  79.7176 280.4159 13.15549429138520
